IONOSFERA-M 2           
1 61736U 24199B   26169.63460205  .00000041  00000+0  37862-4 0  9992
2 61736  98.7170  42.7021 0000984  38.4246 321.7002 14.22757853131038
PRSC-EO1                
1 62725U 25012A   26169.64224348  .00005037  00000+0  25368-3 0  9990
2 62725  97.4222 242.0739 0004864 245.7588 114.3138 15.17623907 78410
BIOMASS                 
1 63772U 25090A   26169.46532684  .00000158  00000+0  36300-4 0  9992
2 63772  98.0739 356.7637 0001345  96.2561 263.8797 14.67536694 60876
GOSAT-GW (IBUKI GW)     
1 64694U 25141A   26169.62196086  .00000031  00000+0  13815-4 0  9999
2 64694  98.0569 106.9157 0001450  84.2990 275.8380 14.67553997 52050
IONOSFERA-M 3           
1 64876U 25155A   26169.58320654  .00000034  00000+0  34921-4 0  9995
2 64876  98.6025 131.4531 0001089 154.1895 205.9337 14.21486651 46605
IONOSFERA-M 4           
1 64877U 25155B   26169.61804594  .00000034  00000+0  34966-4 0  9999
2 64877  98.6031 131.4045 0001094 120.1535 239.9752 14.21488827 46608
MICROCARB               
1 64899U 25156A   26169.16915921  .00000400  00000+0  71084-4 0  9990
2 64899  97.9832 246.2889 0014973 268.7972  91.1520 14.72326380 48118
CO3D 3                  
1 64900U 25156B   26169.56991372  .00003518  00000+0  16554-3 0  9994
2 64900  97.4330 248.2432 0001555 129.0050 231.1324 15.20204054 49748
CO3D 4                  
1 64901U 25156C   26169.57005920  .00000226  00000+0  13536-4 0  9992
2 64901  97.4334 248.2429 0000087 342.5705  17.5527 15.20208262 49743
CO3D 2                  
1 64902U 25156D   26169.53672109  .00003378  00000+0  15906-3 0  9991
2 64902  97.4329 248.1093 0001493 107.1149 253.0250 15.20205632 49730
CO3D 1                  
1 64903U 25156E   26169.53687345  .00003991  00000+0  18738-3 0  9997
2 64903  97.4327 248.1097 0001310 111.6695 248.4679 15.20206112 49734
PRSC-S1                 
1 65055U 25164A   26169.58988650  .00003671  00000+0  25608-3 0  9992
2 65055  41.1307 279.9127 0006378 353.1551   6.9175 15.06468655 48649
SENTINEL-6B             
1 66514U 25264A   26169.33504650 -.00000063  00000+0 -10561-4 0  9998
2 66514  66.0396 132.7942 0008007 269.1738  90.8360 12.80929960 27318
CAS500-3                
1 66655U 25274F   26169.55986531  .00000979  00000+0  11166-3 0  9996
2 66655  97.7445  97.5797 0006798 106.6745 253.5219 14.88323641 30357
CSG-3                   
1 67304U 26001A   26169.27920766  .00000244  00000+0  37177-4 0  9990
2 67304  97.8888 352.8652 0001382  94.6724 265.4647 14.82154443 24621
PRSC-E03                
1 68835U 26092A   26169.44747625  .00002104  00000+0  14630-3 0  9995
2 68835  38.0010  82.2485 0003488  14.6995 345.3868 15.06673684  8146
CAS500-2                
1 69013U 26100AK  26169.46829896  .00005172  00000+0  23876-3 0  9997
2 69013  97.4073  67.3009 0010572  30.8412 329.3442 15.20602375  7004
