OBJECT_NAME,OBJECT_ID,EPOCH,MEAN_MOTION,ECCENTRICITY,INCLINATION,RA_OF_ASC_NODE,ARG_OF_PERICENTER,MEAN_ANOMALY,EPHEMERIS_TYPE,CLASSIFICATION_TYPE,NORAD_CAT_ID,ELEMENT_SET_NO,REV_AT_EPOCH,BSTAR,MEAN_MOTION_DOT,MEAN_MOTION_DDOT
IONOSFERA-M 2,2024-199B,2026-06-18T15:13:49.617120,14.22757853,.0000984,98.7170,42.7021,38.4246,321.7002,0,U,61736,999,13103,.37861975E-4,.41E-6,0
PRSC-EO1,2025-012A,2026-06-18T15:24:49.836672,15.17623907,.00048642,97.4222,242.0739,245.7588,114.3138,0,U,62725,999,7841,.25368364E-3,.5037E-4,0
BIOMASS,2025-090A,2026-06-18T11:10:04.238976,14.67536694,.00013455,98.0739,356.7637,96.2561,263.8797,0,U,63772,999,6087,.36299675E-4,.158E-5,0
GOSAT-GW (IBUKI GW),2025-141A,2026-06-18T14:55:37.418304,14.67553997,.00014505,98.0569,106.9157,84.2990,275.8380,0,U,64694,999,5205,.1381529E-4,.31E-6,0
IONOSFERA-M 3,2025-155A,2026-06-18T13:59:49.045056,14.21486651,.00010896,98.6025,131.4531,154.1895,205.9337,0,U,64876,999,4660,.34921246E-4,.34E-6,0
IONOSFERA-M 4,2025-155B,2026-06-18T14:49:59.169216,14.21488827,.00010944,98.6031,131.4045,120.1535,239.9752,0,U,64877,999,4660,.34966043E-4,.34E-6,0
MICROCARB,2025-156A,2026-06-18T04:03:35.355744,14.72326380,.00149735,97.9832,246.2889,268.7972,91.1520,0,U,64899,999,4811,.71083563E-4,.4E-5,0
CO3D 3,2025-156B,2026-06-18T13:40:40.545408,15.20204054,.00015558,97.4330,248.2432,129.0050,231.1324,0,U,64900,999,4974,.16553813E-3,.3518E-4,0
CO3D 4,2025-156C,2026-06-18T13:40:53.114880,15.20208262,.00000871,97.4334,248.2429,342.5705,17.5527,0,U,64901,999,4974,.13535886E-4,.226E-5,0
CO3D 2,2025-156D,2026-06-18T12:52:52.702176,15.20205632,.0001493,97.4329,248.1093,107.1149,253.0250,0,U,64902,999,4973,.15906482E-3,.3378E-4,0
CO3D 1,2025-156E,2026-06-18T12:53:05.866080,15.20206112,.00013101,97.4327,248.1097,111.6695,248.4679,0,U,64903,999,4973,.18737962E-3,.3991E-4,0
PRSC-S1,2025-164A,2026-06-18T14:09:26.193600,15.06468655,.00063786,41.1307,279.9127,353.1551,6.9175,0,U,65055,999,4864,.25608008E-3,.3671E-4,0
SENTINEL-6B,2025-264A,2026-06-18T08:02:28.017600,12.80929960,.00080079,66.0396,132.7942,269.1738,90.8360,0,U,66514,999,2731,-.10560845E-4,-.63E-6,0
CAS500-3,2025-274F,2026-06-18T13:26:12.362784,14.88323641,.00067983,97.7445,97.5797,106.6745,253.5219,0,U,66655,999,3035,.11166294E-3,.979E-5,0
CSG-3,2026-001A,2026-06-18T06:42:03.541824,14.82154443,.00013823,97.8888,352.8652,94.6724,265.4647,0,U,67304,999,2462,.37177463E-4,.244E-5,0
PRSC-E03,2026-092A,2026-06-18T10:44:21.948000,15.06673684,.00034885,38.0010,82.2485,14.6995,345.3868,0,U,68835,999,814,.14629806E-3,.2104E-4,0
CAS500-2,2026-100AK,2026-06-18T11:14:21.030144,15.20602375,.0010572,97.4073,67.3009,30.8412,329.3442,0,U,69013,999,700,.23875866E-3,.5172E-4,0
